{"epoch":1784902576,"count":18312,"objects":[{"id":"26407","name":"NAVSTAR 48 (USA 151)","type":"PAYLOAD","l1":"1 26407U 00040A   26204.44449333  .00000088  00000-0  00000+0 0  9996","l2":"2 26407  54.8477 213.7220 0120292 302.8465 239.9178  2.00558038190670"},{"id":"27663","name":"NAVSTAR 51 (USA 166)","type":"PAYLOAD","l1":"1 27663U 03005A   26205.01565861  .00000089  00000-0  00000-0 0  9996","l2":"2 27663  54.8780 213.5055 0148479  53.2089 318.1845  2.00558674172051"},{"id":"28190","name":"NAVSTAR 54 (USA 177)","type":"PAYLOAD","l1":"1 28190U 04009A   26204.77777778 -.00000025  00000-0  00000-0 0  9992","l2":"2 28190  54.7996 274.2069 0117431 174.7318 177.2770  2.00553783163677"},{"id":"28474","name":"NAVSTAR 56 (USA 180)","type":"PAYLOAD","l1":"1 28474U 04045A   26204.77777778 -.00000110  00000-0  00000-0 0  9992","l2":"2 28474  55.1124 323.4224 0170364 317.2564  99.9291  2.00557825159169"},{"id":"28874","name":"NAVSTAR 57 (USA 183)","type":"PAYLOAD","l1":"1 28874U 05038A   26204.24434278 -.00000024  00000-0  00000+0 0  9999","l2":"2 28874  54.8493 271.7203 0128346 296.5220  60.3256  2.00563316152552"},{"id":"28899","name":"INMARSAT 4-F2","type":"PAYLOAD","l1":"1 28899U 05044A   26205.28230469 -.00000259  00000-0  00000-0 0  9995","l2":"2 28899   5.1431  43.6890 0002974  62.9400  80.5015  1.00273056 75897"},{"id":"29486","name":"NAVSTAR 58 (USA 190)","type":"PAYLOAD","l1":"1 29486U 06042A   26204.64382052  .00000003  00000-0  00000-0 0  9998","l2":"2 29486  54.7132 149.8915 0107419  55.4105 128.9756  2.00567841145126"},{"id":"29601","name":"NAVSTAR 59 (USA 192)","type":"PAYLOAD","l1":"1 29601U 06052A   26203.81820194  .00000087  00000-0  00000-0 0  9992","l2":"2 29601  54.9317 212.5938 0084744  91.0163 269.9892  2.00560215144124"},{"id":"32260","name":"NAVSTAR 60 (USA 196)","type":"PAYLOAD","l1":"1 32260U 07047A   26204.12413520 -.00000071  00000-0  00000+0 0  9991","l2":"2 32260  54.1219  78.5842 0168029  88.1819 273.7984  2.00553724137539"},{"id":"32275","name":"COSMOS 2433 (GLONASS)","type":"PAYLOAD","l1":"1 32275U 07052A   26204.98699450 -.00000088  00000-0  00000-0 0  9994","l2":"2 32275  65.5538 314.6946 0003845 206.2839 153.7145  2.13104174145847"},{"id":"32276","name":"COSMOS 2432 (GLONASS)","type":"PAYLOAD","l1":"1 32276U 07052B   26202.71222580 -.00000089  00000-0  00000+0 0  9990","l2":"2 32276  65.5711 314.9000 0007377 320.6362  37.9836  2.13103057145817"},{"id":"32384","name":"NAVSTAR 61 (USA 199)","type":"PAYLOAD","l1":"1 32384U 07062A   26204.77777778 -.00000020  00000-0  00000-0 0  9999","l2":"2 32384  55.0028 272.6798 0036068 168.0387  72.1090  2.00562593136246"},{"id":"32393","name":"COSMOS 2434 (GLONASS)","type":"PAYLOAD","l1":"1 32393U 07065A   26204.41759829  .00000090  00000-0  00000+0 0  9995","l2":"2 32393  64.3201 190.6938 0001260 328.7623 204.0735  2.13101318144543"},{"id":"32395","name":"COSMOS 2436 (GLONASS)","type":"PAYLOAD","l1":"1 32395U 07065C   26204.25276242  .00000091  00000-0  00000+0 0  9993","l2":"2 32395  64.3287 190.7719 0017299 353.7357 184.8008  2.13100091144497"},{"id":"32711","name":"NAVSTAR 62 (USA 201)","type":"PAYLOAD","l1":"1 32711U 08012A   26205.02913841 -.00000003  00000-0  00000-0 0  9992","l2":"2 32711  54.5006 148.4529 0211745 248.2297 109.4802  2.00573486134493"},{"id":"35752","name":"NAVSTAR 64 (USA 206)","type":"PAYLOAD","l1":"1 35752U 09043A   26204.51743443 -.00000078  00000-0  00000+0 0  9998","l2":"2 35752  56.2331  26.0264 0053637  84.7546 272.6757  2.00552515124088"},{"id":"36111","name":"COSMOS 2456 (GLONASS)","type":"PAYLOAD","l1":"1 36111U 09070A   26204.24251524 -.00000046  00000-0  00000-0 0  9998","l2":"2 36111  65.0327  69.7425 0003079 345.9694 210.8988  2.13103733129190"},{"id":"36112","name":"COSMOS 2457 (GLONASS)","type":"PAYLOAD","l1":"1 36112U 09070B   26203.13698076 -.00000052  00000-0  00000-0 0  9990","l2":"2 36112  65.0178  69.6233 0004395 122.7671  73.0536  2.13101025129177"},{"id":"36402","name":"COSMOS 2460 (GLONASS)","type":"PAYLOAD","l1":"1 36402U 10007C   26202.40772837 -.00000088  00000-0  00000-0 0  9990","l2":"2 36402  65.3983 313.3083 0001853 154.3387 203.9833  2.13101549127453"},{"id":"36585","name":"NAVSTAR 65 (USA 213)","type":"PAYLOAD","l1":"1 36585U 10022A   26204.60664840  .00000088  00000-0  00000-0 0  9996","l2":"2 36585  54.2680 207.0950 0126933  66.1694 115.9629  2.00564274118321"},{"id":"36828","name":"BEIDOU 5","type":"PAYLOAD","l1":"1 36828U 10036A   26203.83497221 -.00000090  00000-0  00000-0 0  9996","l2":"2 36828  54.3079 162.6381 0059060 225.2794 320.0279  1.00261993 58451"},{"id":"37210","name":"BEIDOU 6","type":"PAYLOAD","l1":"1 37210U 10057A   26204.85788515 -.00000111  00000-0  00000-0 0  9991","l2":"2 37210   3.7359  68.7153 0005252 182.5286 159.1360  1.00273363 57651"},{"id":"37256","name":"BEIDOU 7","type":"PAYLOAD","l1":"1 37256U 10068A   26202.87819282 -.00000198  00000-0  00000-0 0  9994","l2":"2 37256  47.4828 271.3972 0057045 214.5351 238.1175  1.00271863 57143"},{"id":"37384","name":"BEIDOU 8","type":"PAYLOAD","l1":"1 37384U 11013A   26202.49436278 -.00000172  00000-0  00000-0 0  9997","l2":"2 37384  62.4558  39.8259 0035881 183.5212 359.9880  1.00259347 56004"},{"id":"37605","name":"GSAT 8","type":"PAYLOAD","l1":"1 37605U 11022A   26205.21155848  .00000087  00000-0  00000-0 0  9991","l2":"2 37605   2.2237  81.3721 0002557 149.0280 202.7711  1.00272791 53584"},{"id":"37763","name":"BEIDOU 9","type":"PAYLOAD","l1":"1 37763U 11038A   26204.34647517 -.00000037  00000-0  00000+0 0  9990","l2":"2 37763  54.6049 165.3512 0160077 231.4952 123.4200  1.00278501 55002"},{"id":"37846","name":"GALILEO-PFM","type":"PAYLOAD","l1":"1 37846U 11060A   26203.04348625 -.00000107  00000-0  00000-0 0  9990","l2":"2 37846  56.9816 340.8168 0002032  64.0635 295.9520  1.70475789 91714"},{"id":"37847","name":"GALILEO-FM2","type":"PAYLOAD","l1":"1 37847U 11060B   26202.38421657 -.00000107  00000-0  00000-0 0  9994","l2":"2 37847  56.9829 340.8353 0001996   5.2866 355.7737  1.70476023 91713"},{"id":"37867","name":"COSMOS 2476 (GLONASS)","type":"PAYLOAD","l1":"1 37867U 11064A   26205.26536221 -.00000036  00000-0  00000-0 0  9995","l2":"2 37867  65.2914  71.6198 0021992 235.1374 294.7452  2.13103714114551"},{"id":"37868","name":"COSMOS 2477 (GLONASS)","type":"PAYLOAD","l1":"1 37868U 11064B   26205.28239203 -.00000036  00000-0  00000-0 0  9998","l2":"2 37868  65.2979  71.6989 0019063 235.7837 127.3957  2.13102941114559"},{"id":"37869","name":"COSMOS 2475 (GLONASS)","type":"PAYLOAD","l1":"1 37869U 11064C   26204.16432013 -.00000046  00000-0  00000-0 0  9990","l2":"2 37869  65.3041  71.7587 0024509 250.2945 290.1042  2.13101721114536"}]}